ORBCOMM FM33            
1 25983U 99065D   26007.30254046  .00001326  00000+0  45617-3 0  9992
2 25983  45.0277 108.1163 0006843   2.5122 357.5760 14.40615308365499
ORBCOMM FM36            
1 25984U 99065E   26007.80744086  .00001122  00000+0  40771-3 0  9996
2 25984  45.0372 200.7394 0002473 241.1389 118.9212 14.38791107363883
ORBCOMM FM35            
1 25985U 99065F   26007.59081220  .00001082  00000+0  40345-3 0  9999
2 25985  45.0377 208.4721 0003513 348.8250  11.2520 14.37693228364192
ORBCOMM FM34            
1 25986U 99065G   26007.28041502  .00000837  00000+0  32331-3 0  9998
2 25986  45.0372 210.4194 0003337 292.1471  67.9023 14.37630418364261
ORBCOMM FM38            
1 33060U 08031A   26004.76613348  .00003077  00000+0  40658-3 0  9996
2 33060  48.4397  73.8972 0004877 200.7860 159.2858 14.82393776944649
ORBCOMM FM41            
1 33061U 08031B   26007.62215766  .00001670  00000+0  23542-3 0  9997
2 33061  48.4433  68.7701 0004006 198.3992 320.6933 14.81956011944549
ORBCOMM FM29            
1 33062U 08031C   26007.65167987  .00002085  00000+0  28608-3 0  9991
2 33062  48.4385  76.1580 0005672 194.7113 296.6842 14.82114614944467
ORBCOMM FM39            
1 33063U 08031D   26007.25827712  .00002104  00000+0  29924-3 0  9991
2 33063  48.4394 104.6324 0006292 160.4312 199.6846 14.80534230944027
